STARLINK-3806           
1 52378U 22045AZ  26090.26571098  .00002079  00000+0  14867-3 0  9999
2 52378  53.2169  92.2634 0001480  98.9914 261.1246 15.08845551219187
STARLINK-3800           
1 52379U 22045BA  26090.26938601  .00000717  00000+0  63105-4 0  9994
2 52379  53.2169  92.2472 0001358  88.8564 271.2584 15.08840702219181
STARLINK-3793           
1 52380U 22045BB  26090.18199057  .00000196  00000+0  30419-4 0  9994
2 52380  53.2174  82.6680 0001418  87.5211 272.5944 15.08841634219308
STARLINK-3799           
1 52382U 22045BD  26090.18133318  .00009359  00000+0  57821-3 0  9999
2 52382  53.2149  92.5386 0001065  73.7877 286.3233 15.10524564219170
STARLINK-3811           
1 52383U 22045BE  26090.21512455  .00005496  00000+0  36320-3 0  9996
2 52383  53.2180  82.5178 0001167  79.3263 280.7861 15.08831034219319
JILIN-1 GAOFEN 3D04     
1 52389U 22046B   26089.06014165  .00332049  00000+0  13827-2 0  9992
2 52389  97.4904 205.7628 0004038 248.6533 111.4306 15.84860540218084
JILIN-1 GAOFEN 3D05     
1 52390U 22046C   26090.27088120  .00378803  56046-4  12131-2 0  9992
2 52390  97.4772 206.6136 0004810 237.6642 122.4166 15.90993218218341
JILIN-1 GAOFEN 3D06     
1 52391U 22046D   26090.30081431  .00316261  00000+0  11811-2 0  9993
2 52391  97.4985 209.3792 0004251 237.5928 122.4932 15.87164763218332
BRO-6                   
1 52422U 22047AE  26090.25245598  .00040023  00000+0  82605-3 0  9999
2 52422  97.3408 180.0959 0004006   6.0903 354.0394 15.45751003219098
JILIN-1 KUANFU 01C      
1 52443U 22048A   26090.22359591  .00005250  00000+0  32840-3 0  9998
2 52443  97.5289 168.7858 0014363 228.3693 131.6306 15.09763906215434
JILIN-1 GAOFEN 3D27     
1 52444U 22048B   26090.23215788  .00080890  00000+0  92633-3 0  9998
2 52444  97.5643 198.0630 0003711 312.2098  47.8844 15.61854249217267
JILIN-1 GAOFEN 3D28     
1 52445U 22048C   26090.27151851  .00088691  00000+0  95774-3 0  9999
2 52445  97.5585 198.0597 0001986 330.4262  29.6884 15.63347863217300
JILIN-1 GAOFEN 3D29     
1 52446U 22048D   26090.22973236  .00083523  00000+0  94996-3 0  9998
2 52446  97.5640 198.3972 0001822 257.8420 102.2634 15.62027455217289
JILIN-1 GAOFEN 3D30     
1 52447U 22048E   26090.23272788  .00126794  00000+0  10336-2 0  9997
2 52447  97.5611 200.5622 0004501 290.5268  69.5511 15.70224354217440
JILIN-1 GAOFEN 3D31     
1 52448U 22048F   26090.26989215  .00094830  00000+0  97474-3 0  9995
2 52448  97.5621 198.9828 0000540 342.6117  17.5123 15.64587486217343
STARLINK-3870           
1 52451U 22049A   26090.06694070  .00012888  00000+0  44038-3 0  9991
2 52451  53.2164 331.3287 0002083  91.0313 269.0927 15.30650670215362
STARLINK-3909           
1 52452U 22049B   26090.05225443 -.00000072  00000+0  13538-4 0  9990
2 52452  53.2179 333.0923 0001397  91.2538 268.8614 15.08840444215335
STARLINK-3872           
1 52453U 22049C   26089.96763447 -.00000468  00000+0 -11292-4 0  9995
2 52453  53.2193 333.6053 0001525 100.1198 259.9967 15.08833200215320
STARLINK-3888           
1 52454U 22049D   26089.97131233 -.00001195  00000+0 -57012-4 0  9997
2 52454  53.2201 333.5881 0001539 105.5274 254.5888 15.08836776215322
STARLINK-3890           
1 52455U 22049E   26089.96491149 -.00000598  00000+0 -19475-4 0  9999
2 52455  53.2181 333.6154 0001238  89.3796 270.7338 15.08831473215327
STARLINK-3896           
1 52456U 22049F   26090.09370583 -.00000285  00000+0  17852-6 0  9995
2 52456  53.2181 333.0366 0001396  83.6459 276.4692 15.08841848215340
STARLINK-3899           
1 52457U 22049G   26090.08905290  .00003798  00000+0  25643-3 0  9999
2 52457  53.2168 333.0474 0001743  80.7163 279.4026 15.08861874215347
STARLINK-3898           
1 52458U 22049H   26090.08634501 -.00000421  00000+0 -83683-5 0  9996
2 52458  53.2174 333.0669 0001370  97.1781 262.9367 15.08840248215342
STARLINK-3856           
1 52459U 22049J   26090.07159032  .00001557  00000+0  11589-3 0  9990
2 52459  53.2172 323.1353 0001183  81.9250 278.1876 15.08834160215479
STARLINK-3900           
1 52461U 22049L   26090.00259043  .00000425  00000+0  44772-4 0  9993
2 52461  53.2180 313.4441 0001407  88.0438 272.0715 15.08839908215601
STARLINK-3903           
1 52462U 22049M   26090.06518346 -.00006359  00000+0 -38187-3 0  9990
2 52462  53.2186 323.1734 0001190  90.0338 270.0791 15.08833604215476
STARLINK-3885           
1 52463U 22049N   26089.99892037 -.00003959  00000+0 -23084-3 0  9996
2 52463  53.2169 313.4617 0001220  94.5431 265.5701 15.08830486215607
STARLINK-3904           
1 52464U 22049P   26090.06791184 -.00000739  00000+0 -28343-4 0  9995
2 52464  53.2174 323.1519 0001277  84.5204 275.5934 15.08837440215473
STARLINK-3863           
1 52465U 22049Q   26090.06147741 -.00001234  00000+0 -59451-4 0  9995
2 52465  53.2182 313.1802 0001446  90.9935 269.1223 15.08829068215610
STARLINK-3873           
1 52467U 22049S   26090.06055021 -.00000360  00000+0 -45495-5 0  9999
2 52467  53.2167 323.1832 0001588  90.0510 270.0664 15.08841071215478
STARLINK-3864           
1 52468U 22049T   26089.91335146  .00001628  00000+0  12033-3 0  9997
2 52468  53.2173 323.8437 0001290  90.1072 270.0068 15.08842049215450
STARLINK-3828           
1 52469U 22049U   26089.92071359 -.00000045  00000+0  15270-4 0  9992
2 52469  53.2183 323.8184 0001501  92.6049 267.5115 15.08837818215459
STARLINK-3859           
1 52470U 22049V   26090.03847363  .00000079  00000+0  23065-4 0  9991
2 52470  53.2188 323.2810 0001425  91.7867 268.3289 15.08840107215477
STARLINK-3862           
1 52471U 22049W   26089.91799318 -.00000859  00000+0 -35909-4 0  9991
2 52471  53.2169 323.8327 0001375  86.9359 273.1790 15.08835857215457
STARLINK-3881           
1 52472U 22049X   26090.03479073  .00000208  00000+0  31175-4 0  9997
2 52472  53.2176 323.2980 0001466  88.1094 272.0066 15.08842400215474
STARLINK-3879           
1 52473U 22049Y   26090.04213487  .00001881  00000+0  13617-3 0  9992
2 52473  53.2182 323.2649 0001814  98.8860 261.2338 15.08855141215478
STARLINK-3882           
1 52475U 22049AA  26089.92441867 -.00001377  00000+0 -68474-4 0  9998
2 52475  53.2193 324.0167 0001278  93.8971 266.2168 15.08833271215452
STARLINK-3835           
1 52476U 22049AB  26090.00726906 -.00000240  00000+0  30278-5 0  9999
2 52476  53.2185 313.6649 0001285  90.9892 269.1247 15.08834454216849
STARLINK-3860           
1 52477U 22049AC  26089.99155520 -.00000105  00000+0  11463-4 0  9998
2 52477  53.2189 313.4953 0001381  91.4910 268.6241 15.08833332216846
STARLINK-3825           
1 52478U 22049AD  26090.02742810  .00000140  00000+0  26895-4 0  9992
2 52478  53.2182 323.3315 0001338  89.9532 270.1614 15.08842018216715
STARLINK-3878           
1 52479U 22049AE  26089.97682814 -.00007028  00000+0 -42361-3 0  9991
2 52479  53.2180 313.5610 0001659  81.9823 278.1357 15.08861720216841
STARLINK-3839           
1 52480U 22049AF  26090.02375357  .00000037  00000+0  20432-4 0  9999
2 52480  53.2187 323.3493 0001571  95.0385 265.0787 15.08835365215476
STARLINK-3813           
1 52482U 22049AH  26089.90323353 -.00000721  00000+0 -27180-4 0  9994
2 52482  53.2175 313.8903 0001662  94.1737 265.9445 15.08837015215594
STARLINK-3875           
1 52483U 22049AJ  26090.04675270 -.00000179  00000+0  68697-5 0  9995
2 52483  53.2176 313.2459 0001263  90.1717 269.9420 15.08836668216857
STARLINK-3887           
1 52484U 22049AK  26090.02007083  .00000088  00000+0  23600-4 0  9997
2 52484  53.2191 323.3681 0001612  95.0924 265.0252 15.08839093215478
STARLINK-3913           
1 52485U 22049AL  26090.03938797  .00000614  00000+0  56642-4 0  9991
2 52485  53.2164 313.2785 0001355  89.4855 270.6293 15.08846975215616
STARLINK-3918           
1 52486U 22049AM  26089.94647515 -.00000227  00000+0  38184-5 0  9998
2 52486  53.2195 323.6974 0001457  97.9704 262.1454 15.08833651215461
STARLINK-3902           
1 52487U 22049AN  26090.05044665 -.00000030  00000+0  16208-4 0  9994
2 52487  53.2175 313.3355 0001318  90.9733 269.1410 15.08835929216853
STARLINK-3892           
1 52488U 22049AP  26090.07526998  .00000100  00000+0  24402-4 0  9993
2 52488  53.2168 323.1204 0001337  89.5084 270.6061 15.08841973215485
STARLINK-3923           
1 52489U 22049AQ  26089.88391580 -.00000217  00000+0  44332-5 0  9993
2 52489  53.2184 323.9803 0001483 102.6618 257.4540 15.08834950215458
STARLINK-3914           
1 52490U 22049AR  26090.02466687 -.00001381  00000+0 -68670-4 0  9998
2 52490  53.2178 313.3444 0001459  97.7334 262.3824 15.08842612215611
STARLINK-3908           
1 52491U 22049AS  26090.03202869  .00003953  00000+0  26636-3 0  9990
2 52491  53.2170 313.3130 0001451  90.6731 269.4428 15.08838167215619
STARLINK-3916           
1 52492U 22049AT  26090.01730562  .00000825  00000+0  69910-4 0  9993
2 52492  53.2172 313.3759 0001291  88.8595 271.2545 15.08850288215617
STARLINK-3883           
1 52493U 22049AU  26090.02835081 -.00000135  00000+0  96155-5 0  9994
2 52493  53.2173 313.3276 0001325  92.1021 268.0123 15.08839009215617
STARLINK-3857           
1 52494U 22049AV  26090.00627356  .00000299  00000+0  36859-4 0  9991
2 52494  53.2184 313.4257 0001550  86.0176 274.0994 15.08841618215615
STARLINK-3871           
1 52496U 22049AX  26090.04167502  .00002225  00000+0  15781-3 0  9990
2 52496  53.2186 308.2704 0001381  93.1844 266.9306 15.08853782215680
STARLINK-3884           
1 52497U 22049AY  26089.88115108  .00000370  00000+0  41309-4 0  9991
2 52497  53.2170 313.9861 0001501  91.0205 269.0960 15.08839157215593
STARLINK-3925           
1 52498U 22049AZ  26089.98879057  .00000061  00000+0  21950-4 0  9990
2 52498  53.2166 303.5038 0001338  88.5243 271.5902 15.08840329215745
STARLINK-3894           
1 52499U 22049BA  26090.00995067  .00000784  00000+0  67361-4 0  9994
2 52499  53.2176 313.4091 0001363  87.6205 272.4944 15.08842874215611
